SKYSAT-A                
1 39418U 13066C   26122.08961600  .00004056  00000+0  23383-3 0  9990
2 39418  97.3850 172.9549 0023108 112.7438 247.6238 15.12706629681518
SKYSAT-B                
1 40072U 14037D   26122.33019906  .00001529  00000+0  17366-3 0  9994
2 40072  98.3808  78.6957 0006941  71.2904 288.9064 14.87905592639146
SKYSAT-C1               
1 41601U 16040C   26122.34983663  .00010367  00000+0  30227-3 0  9991
2 41601  96.9600 156.5712 0003135 151.2113 208.9305 15.35528868550836
SKYSAT-C4               
1 41771U 16058B   26122.36695619  .00017584  00000+0  34755-3 0  9999
2 41771  96.9204 146.0982 0003437  87.8900 272.2744 15.47172827538380
SKYSAT-C5               
1 41772U 16058C   26122.38029045  .00008739  00000+0  26941-3 0  9996
2 41772  97.0508 165.0765 0004970  97.6666 262.5142 15.33810515536729
SKYSAT-C2               
1 41773U 16058D   26122.04098804  .00012225  00000+0  29796-3 0  9995
2 41773  97.0201 145.9014 0002863 177.4735 182.6527 15.41031241537941
SKYSAT-C3               
1 41774U 16058E   26122.02939214  .00021040  00000+0  36817-3 0  9990
2 41774  96.9072 154.7006 0002775 100.6582 259.4983 15.50635065538950
SKYSAT-C11              
1 42987U 17068A   26122.35284661  .00030400  00000+0  44463-3 0  9990
2 42987  97.4299 269.2898 0001479 131.3562 228.7819 15.55566664476113
SKYSAT-C10              
1 42988U 17068B   26122.37633301  .00010824  00000+0  33300-3 0  9998
2 42988  97.4442 258.8239 0001680 105.5982 254.5446 15.33843036475333
SKYSAT-C9               
1 42989U 17068C   26122.32903639  .00015584  00000+0  38638-3 0  9995
2 42989  97.4365 259.2847 0007320 305.8570  54.1996 15.40446380475695
SKYSAT-C8               
1 42990U 17068D   26122.35043918  .00011824  00000+0  33876-3 0  9997
2 42990  97.4456 258.4267 0001246 110.2958 249.8420 15.36070421475277
SKYSAT-C7               
1 42991U 17068E   26122.34232476  .00012736  00000+0  36527-3 0  9995
2 42991  97.4471 259.4052 0004671 268.6505  91.4204 15.36010361475334
SKYSAT-C6               
1 42992U 17068F   26122.35351748  .00010240  00000+0  31705-3 0  9992
2 42992  97.4504 259.5383 0001391 335.8521  24.2656 15.33657746475292
SKYSAT-C12              
1 43797U 18099AR  26122.33176532  .00018837  00000+0  36858-3 0  9999
2 43797  96.9288 147.4560 0002576 353.4506   6.6711 15.47453958414761
SKYSAT-C13              
1 43802U 18099AW  26122.09535177  .00158112  10833-4  55005-3 0  9999
2 43802  96.9244 170.2585 0002022  95.6240 264.5264 15.89402585415616
FLOCK 4Q-16             
1 58271U 23174R   26122.21434918  .00025251  00000+0  49577-3 0  9994
2 58271  97.3830 209.3319 0004855 336.2833  23.8192 15.47298628138461
FLOCK 4Q-11             
1 58273U 23174T   26122.20700354  .00024986  00000+0  48298-3 0  9998
2 58273  97.3874 209.8704 0004590 332.7343  27.3666 15.47754122138479
FLOCK 4Q-36             
1 58274U 23174U   26122.22114355  .00040929  00000+0  61494-3 0  9999
2 58274  97.3851 213.0555 0005420 302.8544  57.2188 15.54755591138683
FLOCK 4Q-28             
1 58280U 23174AA  26122.18850095  .00032047  00000+0  52778-3 0  9996
2 58280  97.3881 211.9764 0003715 310.2776  49.8152 15.52268032138604
FLOCK 4Q-27             
1 58282U 23174AC  26122.18694541  .00033243  00000+0  54938-3 0  9999
2 58282  97.3815 211.4614 0003511 310.0611  50.0333 15.52164463138611
FLOCK 4Q-26             
1 58284U 23174AE  26121.19144052  .00044162  00000+0  67440-3 0  9992
2 58284  97.3875 212.0729 0004676 318.4599  41.6298 15.54295760138526
FLOCK 4Q-31             
1 58285U 23174AF  26122.19483130  .00040759  00000+0  62087-3 0  9997
2 58285  97.3913 212.7630 0004662 309.1464  50.9375 15.54382246138638
FLOCK 4Q-30             
1 58286U 23174AG  26122.24008852  .00039632  00000+0  59959-3 0  9990
2 58286  97.3932 213.0219 0003194 305.8543  54.2413 15.54582584138656
PELICAN-1               
1 58296U 23174AS  26122.24871068  .00101185  00000+0  76013-3 0  9991
2 58296  97.3936 219.7545 0007570 125.7894 234.4074 15.72238751138947
FLOCK 4Q-29             
1 58304U 23174BA  26122.18719282  .00034466  00000+0  55368-3 0  9990
2 58304  97.3930 212.4416 0004006 297.9277  62.1570 15.52946822138610
FLOCK 4Q-22             
1 58306U 23174BC  26122.23740948  .00044619  00000+0  63308-3 0  9995
2 58306  97.3822 212.8469 0003287 291.4685  68.6219 15.56310984138716
FLOCK 4Q-33             
1 58308U 23174BE  26122.19904472  .00034679  00000+0  51947-3 0  9997
2 58308  97.3859 212.6759 0004319 289.9539  70.1249 15.54877703138687
FLOCK 4Q-35             
1 58309U 23174BF  26122.22263566  .00036885  00000+0  57330-3 0  9997
2 58309  97.3878 212.7935 0004195 307.4682  52.6189 15.53848818138663
FLOCK 4Q-7              
1 58318U 23174BQ  26122.48796536  .00033288  00000+0  53894-3 0  9998
2 58318  97.3912 212.5279 0005158 295.4802  64.5917 15.52730816138658
FLOCK 4Q-2              
1 58320U 23174BS  26122.51276150  .00022470  00000+0  43606-3 0  9991
2 58320  97.3830 209.9418 0004443 300.7556  59.3257 15.47661424138535
FLOCK 4Q-9              
1 58322U 23174BU  26122.21693642  .00029113  00000+0  56564-3 0  9997
2 58322  97.3870 209.6901 0004613 302.5636  57.5169 15.47575072138471
FLOCK 4Q-4              
1 58327U 23174BZ  26122.23931588  .00025215  00000+0  50447-3 0  9991
2 58327  97.3832 209.0056 0004567 334.7145  25.3881 15.46752338138452
FLOCK 4Q-13             
1 58328U 23174CA  26122.23943264  .00026135  00000+0  47175-3 0  9992
2 58328  97.4003 211.7837 0004943 321.1168  38.9727 15.49711231138554
FLOCK 4BE-18            
1 60480U 24149N   26122.17432839  .00020090  00000+0  49838-3 0  9993
2 60480  97.3737 205.4767 0004747  77.4416 282.7361 15.40388305 95222
FLOCK 4BE-7             
1 60481U 24149P   26122.45478271  .00025763  00000+0  67944-3 0  9995
2 60481  97.3762 205.2018 0003877  83.1232 277.0454 15.38467288 95215
FLOCK 4BE-26            
1 60484U 24149S   26122.19645741  .00176749  00000+0  23900-2 0  9991
2 60484  97.3678 206.3003 0001372 144.7392 215.3954 15.57125118 95280
FLOCK 4BE-36            
1 60486U 24149U   26122.17222168  .00020422  00000+0  49173-3 0  9992
2 60486  97.3743 206.1018 0004878  86.0524 274.1280 15.41290608 95261
FLOCK 4BE-25            
1 60487U 24149V   26122.48588272  .00015919  00000+0  43231-3 0  9992
2 60487  97.3802 205.3691 0003445  84.4173 275.7464 15.37662703 95217
FLOCK 4BE-31            
1 60488U 24149W   26121.97948689  .00020508  00000+0  47686-3 0  9996
2 60488  97.3804 206.6455 0003898  91.4828 268.6866 15.42347427 95259
FLOCK 4BE-20            
1 60489U 24149X   26122.16573007  .00017314  00000+0  48199-3 0  9998
2 60489  97.3704 204.0436 0005004  84.3331 275.8484 15.36866129 95143
FLOCK 4BE-23            
1 60490U 24149Y   26122.47063209  .00015144  00000+0  42690-3 0  9991
2 60490  97.3785 204.6998 0004911  90.2455 269.9352 15.36505082 95171
FLOCK 4BE-15            
1 60491U 24149Z   26122.46012676  .00116794  00000+0  20435-2 0  9998
2 60491  97.3712 206.4670 0004875 162.1503 197.9921 15.50193743 95323
FLOCK 4BE-17            
1 60492U 24149AA  26122.18954251  .00018477  00000+0  48866-3 0  9990
2 60492  97.3778 205.2444 0004219  83.2492 276.9233 15.38447636 95181
FLOCK 4BE-22            
1 60494U 24149AC  26122.21156666  .00017789  00000+0  45062-3 0  9990
2 60494  97.3739 205.3884 0004852  87.7749 272.4052 15.39776027 95221
FLOCK 4BE-34            
1 60495U 24149AD  26122.22947814  .00019055  00000+0  48136-3 0  9998
2 60495  97.3782 206.1978 0005151  95.3217 264.8617 15.39844725 95257
FLOCK 4BE-32            
1 60497U 24149AF  26122.22411381  .00020925  00000+0  51507-3 0  9999
2 60497  97.3723 205.7120 0005107  92.5101 267.6730 15.40615125 95259
FLOCK 4BE-30            
1 60499U 24149AH  26122.45674294  .00101310  00000+0  19857-2 0  9999
2 60499  97.3792 206.8071 0002982 164.6401 195.4939 15.46994944 94686
FLOCK 4BE-11            
1 60501U 24149AK  26122.17896377  .00020254  00000+0  48506-3 0  9991
2 60501  97.3706 205.8506 0005125  92.1333 268.0501 15.41453917 95260
FLOCK 4BE-24            
1 60505U 24149AP  26122.23024022  .00023020  00000+0  55216-3 0  9992
2 60505  97.3721 206.1486 0005174 100.0622 260.1209 15.41380601 95285
TANAGER-1               
1 60507U 24149AR  26122.29561262  .00013935  00000+0  30286-3 0  9996
2 60507  97.3352 216.3413 0007208 107.9809 252.2225 15.44426251 95952
FLOCK 4BE-29            
1 60509U 24149AT  26122.21126409  .00020109  00000+0  46290-3 0  9993
2 60509  97.3813 207.4478 0004226 106.6988 253.4723 15.42651226 95326
FLOCK 4BE-2             
1 60511U 24149AV  26122.23070287  .00052766  00000+0  99874-3 0  9990
2 60511  97.3824 208.3902 0004315 107.2570 252.9153 15.48204582 95388
FLOCK 4BE-13            
1 60512U 24149AW  26122.18906757  .00018023  00000+0  44355-3 0  9997
2 60512  97.3725 206.1682 0005375  84.4246 275.7613 15.40650722 95289
FLOCK 4BE-27            
1 60513U 24149AX  26122.20731243  .00010703  00000+0  33112-3 0  9993
2 60513  97.3831 204.0655 0005572 106.3717 253.8138 15.33654151 95091
FLOCK 4BE-9             
1 60514U 24149AY  26122.47848466  .00017817  00000+0  45645-3 0  9996
2 60514  97.3794 206.3570 0004377 107.6756 252.4968 15.39431749 95289
FLOCK 4BE-6             
1 60516U 24149BA  26122.21278045  .00016375  00000+0  43505-3 0  9991
2 60516  97.3793 205.5298 0005159 105.9890 254.1924 15.38327394 95209
FLOCK 4BE-14            
1 60517U 24149BB  26122.17117385  .00019356  00000+0  49297-3 0  9992
2 60517  97.3699 205.5889 0006077 105.4158 254.7759 15.39586090 95240
FLOCK 4BE-1             
1 60518U 24149BC  26122.23331332  .00021287  00000+0  51580-3 0  9994
2 60518  97.3783 206.7690 0005584 105.3317 254.8547 15.41087554 95291
FLOCK 4BE-28            
1 60519U 24149BD  26122.18543681  .00021934  00000+0  49351-3 0  9993
2 60519  97.3750 207.3056 0005679 100.8001 259.3886 15.43310593 95340
